{"type": "FeatureCollection", "features": [{"type": "Feature", "geometry": {"type": "LineString", "coordinates": [[78.7985372, 30.144385], [78.7980866, 30.1452756], [78.7979793, 30.146556], [78.7969708, 30.148059], [78.7961554, 30.1492836], [78.7955975, 30.1507309], [78.7949323, 30.1517328], [78.7939882, 30.1532542], [78.7940955, 30.1548499], [78.7934088, 30.1562229], [78.7927651, 30.1577257], [78.792336, 30.1590986], [78.7916279, 30.160286], [78.7902546, 30.1613992], [78.7898469, 30.1626607], [78.7892246, 30.1638666], [78.7881732, 30.165796], [78.7880015, 30.1670946], [78.7875724, 30.1676883], [78.7867141, 30.1682077], [78.7865853, 30.1687457], [78.7871432, 30.1695805], [78.7876582, 30.1705452], [78.7874436, 30.171955], [78.7868857, 30.1732165], [78.7860918, 30.1739399], [78.7856519, 30.1752199], [78.7855661, 30.1762772], [78.7848258, 30.1779096], [78.7842464, 30.1790782], [78.7840748, 30.1800613], [78.7846112, 30.1808404], [78.7845039, 30.1814896], [78.7839031, 30.1823985], [78.783431, 30.1827694], [78.7826156, 30.1835299], [78.7817573, 30.1846057], [78.781414, 30.1851436], [78.7808132, 30.1861267], [78.7805128, 30.1864049], [78.7797403, 30.1860154], [78.7791824, 30.186238], [78.7782383, 30.1872024]]}, "properties": {"waterway": "stream", "natural": null, "name": "Nandal Gad", "osm_way_id": 1074717643, "source": "OpenStreetMap contributors"}}]}