{"type": "FeatureCollection", "features": [{"type": "Feature", "geometry": {"type": "LineString", "coordinates": [[78.8021036, 30.1440503], [78.8020136, 30.1443003], [78.8018036, 30.1444503], [78.8017136, 30.1445803], [78.8016036, 30.1449503], [78.8013936, 30.1451503], [78.8013936, 30.1453803], [78.8018236, 30.1460403], [78.8021336, 30.1463503]]}, "properties": {"highway": "trunk", "name": "Pauri Highway", "surface": "asphalt", "osm_way_id": 238422605, "source": "OpenStreetMap contributors"}}, {"type": "Feature", "geometry": {"type": "LineString", "coordinates": [[78.8017336, 30.1493303], [78.8011236, 30.1494003], [78.8009336, 30.1493303], [78.8001536, 30.1487103], [78.7997936, 30.1485403], [78.7989736, 30.1483303], [78.7986636, 30.1483203], [78.7983836, 30.1484703], [78.7979736, 30.1489503], [78.7979636, 30.1491003], [78.7980856, 30.1492401], [78.7981161, 30.1493137], [78.7980882, 30.149396], [78.7977351, 30.14958], [78.7977051, 30.1496233], [78.7976877, 30.1496668], [78.7977002, 30.1497473], [78.7977736, 30.1498203], [78.7979936, 30.1499003], [78.7984536, 30.1499703], [78.798548, 30.1500049], [78.7985761, 30.1500327], [78.7985926, 30.1500736], [78.798556, 30.1503064], [78.7985533, 30.1503945], [78.7985836, 30.1504503], [78.7986821, 30.1505337], [78.7989336, 30.1506703], [78.7989959, 30.1507239], [78.7990073, 30.150761], [78.799008, 30.1508016], [78.7989959, 30.1508375], [78.7989852, 30.1508723], [78.7989624, 30.1509007], [78.7989336, 30.1509203], [78.7984136, 30.1511403], [78.7982536, 30.1514403], [78.7981536, 30.1515303], [78.7971636, 30.1519603], [78.7966836, 30.1519803], [78.7965336, 30.1520403], [78.7963485, 30.1522942], [78.7963432, 30.1524773], [78.7963271, 30.1525816], [78.7962943, 30.1526176], [78.7962661, 30.1526298], [78.7962221, 30.1526461], [78.7960036, 30.1527103], [78.7958936, 30.1528303], [78.7957336, 30.1531203], [78.7956636, 30.1535803], [78.7955436, 30.1537703], [78.7955436, 30.1539603], [78.7956836, 30.1544003], [78.7962836, 30.1547103], [78.796311, 30.154742], [78.7963271, 30.1547826], [78.7963271, 30.1548197], [78.7963136, 30.1548503], [78.7961536, 30.1550003], [78.7954536, 30.1553203], [78.7952936, 30.1556103], [78.7952836, 30.1557703], [78.7954036, 30.1559903], [78.7960036, 30.1562503], [78.7960435, 30.1562814], [78.7960562, 30.1563295], [78.796053, 30.1564303], [78.7958736, 30.1568303], [78.7957736, 30.1569303], [78.7953236, 30.1569703], [78.7950136, 30.1570603], [78.7947636, 30.1573003], [78.7945236, 30.1577903], [78.7943536, 30.1580203], [78.7942136, 30.1583703], [78.7940736, 30.1585203], [78.7940736, 30.1588103], [78.7943136, 30.1592103], [78.7944442, 30.1595532], [78.7944335, 30.1596378], [78.7944207, 30.159661], [78.7944005, 30.1596744], [78.7943624, 30.15969], [78.7943208, 30.1596969], [78.7942609, 30.1597022], [78.7938367, 30.1596308], [78.7937314, 30.1596732], [78.7936858, 30.1597109], [78.7936498, 30.1597631], [78.7936194, 30.1598593], [78.7935271, 30.1600119], [78.7932236, 30.1603503], [78.7928936, 30.1605803], [78.7927736, 30.1609103], [78.7924536, 30.1610603], [78.7922436, 30.1612203], [78.7920936, 30.1614803], [78.7916242, 30.1616168], [78.7915917, 30.1616438], [78.7915675, 30.1616821], [78.7915501, 30.1617238], [78.7915442, 30.1617703], [78.7914736, 30.1622603], [78.7911531, 30.1628671], [78.7911317, 30.1629344], [78.7911403, 30.1630042], [78.7911746, 30.1630526], [78.7912536, 30.1631303], [78.7917936, 30.1634603], [78.791872, 30.163542], [78.7918851, 30.1636549], [78.7918264, 30.1637646], [78.7917336, 30.1638403], [78.7905936, 30.1643603], [78.7902736, 30.1646503], [78.7901836, 30.1647903], [78.7901936, 30.1650203], [78.7903136, 30.1654703], [78.7902536, 30.1657803], [78.7900736, 30.1659003], [78.7898636, 30.1661503], [78.7898036, 30.1663203], [78.7897836, 30.1665103], [78.7899736, 30.1669903], [78.7901536, 30.1672403], [78.7903736, 30.1673703], [78.7904636, 30.1675003], [78.7904636, 30.1676203], [78.7903736, 30.1677203], [78.7900336, 30.1678003], [78.7895036, 30.1684203], [78.7889036, 30.1687703], [78.7884936, 30.1689403], [78.7884575, 30.1689857], [78.7884428, 30.1690437], [78.7884414, 30.1691063], [78.7884736, 30.1691603], [78.7887836, 30.1693303], [78.7892663, 30.169461], [78.7893118, 30.1694814], [78.789348, 30.1695086], [78.7893661, 30.1695498], [78.789369, 30.1695928], [78.7893536, 30.1696803], [78.7890936, 30.1701603], [78.7887936, 30.1711103], [78.7888436, 30.1713903], [78.7890436, 30.1716003], [78.7892136, 30.1718903], [78.7891936, 30.1723003], [78.7890236, 30.1724903], [78.7887418, 30.1725811], [78.7886602, 30.1726141], [78.7886158, 30.1726623], [78.7885936, 30.1727303], [78.7886036, 30.1728403], [78.7887575, 30.172958], [78.7888491, 30.1730193], [78.788943, 30.1731005], [78.789002, 30.1731654], [78.7890131, 30.1732387], [78.7890315, 30.1733417], [78.7890012, 30.1734274], [78.7889036, 30.1735203], [78.7884936, 30.1736703], [78.7882136, 30.1739903], [78.7878536, 30.1741103], [78.7877636, 30.1742103], [78.7877136, 30.1743503], [78.7877536, 30.1744503], [78.7881236, 30.1747303], [78.7882136, 30.1749303], [78.7882136, 30.1750703], [78.7881136, 30.1751903], [78.7875736, 30.1755603], [78.7873836, 30.1758303], [78.787331, 30.1759085], [78.7872521, 30.1759242], [78.7871982, 30.1759248], [78.7871436, 30.1759103], [78.7870601, 30.1758506], [78.7869436, 30.1756803], [78.7868582, 30.1756332], [78.7867856, 30.1756338], [78.786754, 30.1756422], [78.7867322, 30.1756593], [78.7867211, 30.1756801], [78.7867184, 30.1757044], [78.7867636, 30.1765103], [78.7867136, 30.1766803], [78.7863236, 30.1770703], [78.7859936, 30.1772203], [78.7858136, 30.1774403], [78.7857436, 30.1776103], [78.7857736, 30.1780203], [78.7857036, 30.1782003], [78.7853536, 30.1786403], [78.7853436, 30.1788103], [78.7854336, 30.1790503], [78.7854036, 30.1791403], [78.7852336, 30.1792403], [78.7846536, 30.1794203], [78.7845495, 30.1795095], [78.7844968, 30.1796203], [78.7844986, 30.1797622], [78.7845254, 30.1798317], [78.7845636, 30.1798703], [78.7851836, 30.1802003], [78.7855736, 30.1805203], [78.7856636, 30.1808703], [78.7854436, 30.1812603], [78.7854836, 30.1816303], [78.7854436, 30.1818103], [78.7851536, 30.1823303], [78.7850536, 30.1824703], [78.7845036, 30.1828503], [78.7842836, 30.1831103], [78.7841436, 30.1835703], [78.7838636, 30.1838003], [78.7837336, 30.1841003], [78.7837736, 30.1842903], [78.7839136, 30.1843803], [78.7839436, 30.1845003], [78.7838736, 30.1854303], [78.7834236, 30.1859703], [78.7830536, 30.1862803], [78.7825936, 30.1865203], [78.7823536, 30.1869903], [78.7821236, 30.1872703], [78.7819336, 30.1874103]]}, "properties": {"highway": "trunk", "name": "Pauri Highway", "surface": "asphalt", "osm_way_id": 238422605, "source": "OpenStreetMap contributors"}}, {"type": "Feature", "geometry": {"type": "LineString", "coordinates": [[78.7795736, 30.1872303], [78.7793736, 30.1872703], [78.7792636, 30.1873803]]}, "properties": {"highway": "trunk", "name": "Pauri Highway", "surface": "asphalt", "osm_way_id": 238422605, "source": "OpenStreetMap contributors"}}, {"type": "Feature", "geometry": {"type": "LineString", "coordinates": [[78.7807943, 30.1742761], [78.7807971, 30.1743387], [78.7807621, 30.1744292], [78.7805985, 30.1747654], [78.7803303, 30.1751735], [78.7800819, 30.1756206], [78.779751, 30.1759526], [78.779708, 30.1768801], [78.7798904, 30.1773346], [78.7798368, 30.177956], [78.7794291, 30.1783641], [78.7792467, 30.1786516], [78.7792682, 30.1791153], [78.7790858, 30.179208], [78.7788605, 30.1799222], [78.7786566, 30.1801077], [78.7787623, 30.1807124], [78.7786459, 30.1809517], [78.7787639, 30.1813876], [78.7787639, 30.1817493], [78.778603, 30.1819533], [78.7783026, 30.1819533], [78.7780971, 30.1816955], [78.777691, 30.1815916], [78.7773997, 30.1814729], [78.7768434, 30.1814432], [78.7766074, 30.1814061], [78.7761461, 30.181573], [78.7759637, 30.1814988], [78.7756633, 30.1816194], [78.775438, 30.1817678], [78.7751376, 30.1819626], [78.7748828, 30.182035], [78.7747976, 30.1820652], [78.7747889, 30.1820872], [78.7747916, 30.1821104], [78.7748399, 30.1821284], [78.7750732, 30.1820936], [78.7751363, 30.1820704], [78.7752207, 30.1820321], [78.7753374, 30.1820113], [78.7758993, 30.1817307], [78.7760066, 30.1816936], [78.7762319, 30.1818235], [78.7762963, 30.1816936], [78.7764449, 30.1816769], [78.7765538, 30.1817493], [78.7766809, 30.1819273], [78.7768971, 30.1821944], [78.7770473, 30.1822964], [78.7774426, 30.1821314], [78.7778825, 30.1821685], [78.7780665, 30.1824634], [78.7783884, 30.1827138], [78.7788374, 30.1827249], [78.7793754, 30.1827973], [78.7797402, 30.182686], [78.7800283, 30.1825116], [78.7801265, 30.1824263], [78.7802445, 30.1824541], [78.7801908, 30.1825561], [78.7799441, 30.1827138], [78.7796329, 30.1829642], [78.7789677, 30.1830848], [78.7785601, 30.1831775], [78.7782489, 30.183159], [78.7780236, 30.1829735], [78.7777447, 30.1829735], [78.7771852, 30.1831979], [78.7767147, 30.1831961], [78.7764341, 30.1830588], [78.7762641, 30.1827694], [78.7762104, 30.182519], [78.776071, 30.1824356], [78.7757813, 30.1826025], [78.7754272, 30.1828065], [78.775159, 30.1830662], [78.7749552, 30.1831775], [78.7746118, 30.1834094], [78.7744509, 30.1836319], [78.7743973, 30.1840956], [78.7741934, 30.1842719], [78.7743543, 30.1849674], [78.7745888, 30.1850898], [78.7746011, 30.1853662], [78.7750088, 30.1858021], [78.7754149, 30.1856741], [78.7762839, 30.1860265], [78.776661, 30.18685]]}, "properties": {"highway": "unclassified", "name": null, "surface": null, "osm_way_id": 314053684, "source": "OpenStreetMap contributors"}}, {"type": "Feature", "geometry": {"type": "LineString", "coordinates": [[78.7680969, 30.167192], [78.7680673, 30.1674842], [78.7682067, 30.167577], [78.7683124, 30.1677087], [78.7685179, 30.1677254], [78.768763, 30.1678386], [78.7689899, 30.1680686], [78.7692136, 30.1681354], [78.7692887, 30.1680426], [78.7692152, 30.1679016], [78.769226, 30.1677625], [78.7692474, 30.1675955], [78.7690758, 30.1673915], [78.7688934, 30.1672431], [78.7689239, 30.1667255], [78.7690007, 30.1659444], [78.7690758, 30.1656383], [78.7688918, 30.1651022], [78.7689454, 30.1649538], [78.7688075, 30.1648592], [78.7684964, 30.1648406], [78.7684428, 30.1647942], [78.7684197, 30.1646477], [78.768012, 30.164425], [78.7675094, 30.1642562], [78.7673806, 30.1640707], [78.7677561, 30.163913], [78.7682496, 30.1636347], [78.7687968, 30.1635976], [78.7690956, 30.1634325], [78.7693923, 30.163317], [78.7695505, 30.1632799], [78.7695211, 30.1633634], [78.7693655, 30.1634469], [78.7692368, 30.1635141], [78.7691429, 30.1635883], [78.7690866, 30.1636741], [78.7690061, 30.1637576], [78.7688908, 30.1638226], [78.7687272, 30.1639223], [78.7685367, 30.1640104], [78.7683383, 30.1640429], [78.7683383, 30.1641032], [78.7684777, 30.1641032], [78.7686628, 30.1641217], [78.7688372, 30.1641797], [78.7689471, 30.1641542], [78.7691081, 30.1640892], [78.7692261, 30.164073], [78.769328, 30.1640452], [78.7694353, 30.1639826], [78.7696204, 30.1639153], [78.769792, 30.1638481], [78.7699476, 30.1637112], [78.7700093, 30.1637692], [78.7699555, 30.163913], [78.7697946, 30.1640243], [78.7697495, 30.1641282], [78.7698788, 30.1641468], [78.7700306, 30.1640243], [78.7701792, 30.1638685], [78.7701594, 30.1634399], [78.7704904, 30.1623843], [78.7705778, 30.1622619], [78.7706422, 30.1623453], [78.7704169, 30.163208], [78.7705456, 30.1636997], [78.7707199, 30.1644348], [78.7706878, 30.1645322], [78.7704276, 30.1646736], [78.7705333, 30.1649723], [78.7707693, 30.1649723], [78.7709946, 30.1650187], [78.7711893, 30.1651189], [78.7711357, 30.1654157], [78.7712215, 30.1656105], [78.7714361, 30.1657125], [78.771597, 30.1657404], [78.7719709, 30.1660762], [78.7724017, 30.166399], [78.772722, 30.1660947], [78.7727987, 30.1663248], [78.7730116, 30.1665307], [78.7732922, 30.1666865], [78.7734639, 30.1667051], [78.7736339, 30.1667811], [78.7735695, 30.1668461], [78.7734622, 30.1669759], [78.7734424, 30.1671967], [78.7735068, 30.1675306], [78.7737964, 30.1676883], [78.7741827, 30.1679666], [78.774342, 30.1683673], [78.7743651, 30.1687086], [78.7744295, 30.1689127], [78.7746531, 30.1689424], [78.7748908, 30.1690147], [78.7752234, 30.1690054], [78.7755007, 30.168998], [78.7756096, 30.169228], [78.7755452, 30.1695991], [78.7757384, 30.1697475], [78.7759744, 30.1703875], [78.7764127, 30.170445], [78.7766181, 30.1703875], [78.776822, 30.1703782], [78.776822, 30.1704895], [78.7768005, 30.1706379], [78.7766503, 30.1707492], [78.7765967, 30.1710368], [78.7762947, 30.1714096], [78.7763177, 30.171686], [78.7764572, 30.1719179], [78.7765859, 30.1718994], [78.776822, 30.1722518], [78.7768955, 30.1725969], [78.776543, 30.1731052], [78.7761783, 30.1736988], [78.7760495, 30.1739399], [78.7757598, 30.1744315], [78.7756311, 30.1748118], [78.7753414, 30.1752199], [78.7752969, 30.1753794], [78.7754165, 30.1754239], [78.7755238, 30.1752663], [78.7756295, 30.1750548], [78.77591, 30.1746356], [78.7761461, 30.1742831], [78.7764985, 30.1739047], [78.7767989, 30.1738212], [78.7772404, 30.1734762], [78.7775607, 30.1731627], [78.7778611, 30.1729308], [78.7780236, 30.172762], [78.7780649, 30.1725319], [78.7779807, 30.1723353], [78.7778412, 30.1721405], [78.7774335, 30.1718252], [78.7775515, 30.1715933], [78.7778503, 30.1714189], [78.7781202, 30.171315], [78.7781937, 30.1708995], [78.7781829, 30.1706676], [78.7782795, 30.170714], [78.7783133, 30.1709162], [78.7783133, 30.1713243], [78.778206, 30.1714727], [78.7780022, 30.1716211], [78.7779485, 30.1718994], [78.7781615, 30.1721146], [78.7785064, 30.1723353], [78.7787961, 30.1725394], [78.7789876, 30.1725505], [78.779033, 30.172478], [78.7790643, 30.1724281], [78.7791931, 30.1724373], [78.7794275, 30.1725598], [78.7794919, 30.1727546], [78.7795471, 30.1730031], [78.7795686, 30.1730773], [78.7792252, 30.1731237], [78.7789892, 30.1730217], [78.7787961, 30.1730124], [78.7787194, 30.1731163], [78.7786995, 30.173402], [78.7786979, 30.1736264], [78.7784206, 30.1740327], [78.778206, 30.1744964], [78.7780129, 30.1746912], [78.7777125, 30.1757207], [78.7775301, 30.1764813], [78.7773477, 30.1767781], [78.7770687, 30.1772696], [78.7769507, 30.177585], [78.7769078, 30.1780116], [78.7768971, 30.1783362], [78.7769293, 30.1791246], [78.7768542, 30.1794306], [78.7768327, 30.1798202], [78.7769507, 30.1798758], [78.7769813, 30.1797571], [78.7770151, 30.1794306], [78.7770902, 30.1791524], [78.7771438, 30.1787072], [78.7772603, 30.1781526], [78.777809, 30.1779652], [78.7781078, 30.1778558], [78.7783991, 30.1774922], [78.7784957, 30.1770563], [78.778934, 30.1767243], [78.7791716, 30.1764442], [78.7793862, 30.1759619], [78.7798582, 30.1754332], [78.7805218, 30.1745539], [78.7805958, 30.1743758], [78.7807943, 30.1742761]]}, "properties": {"highway": "unclassified", "name": null, "surface": null, "osm_way_id": 314053685, "source": "OpenStreetMap contributors"}}, {"type": "Feature", "geometry": {"type": "LineString", "coordinates": [[78.7912522, 30.1438372], [78.7909625, 30.1440135], [78.7906192, 30.1440227], [78.790542, 30.1445149], [78.7903381, 30.144719], [78.7903703, 30.145053], [78.789748, 30.1459159], [78.7895442, 30.146723], [78.7896322, 30.147604], [78.7893832, 30.1480405], [78.7890313, 30.1482255], [78.7886644, 30.1480868], [78.7884413, 30.1479843], [78.7880014, 30.1479843], [78.7868641, 30.1479936], [78.7866474, 30.1484208], [78.786671, 30.1485595], [78.7863899, 30.1491167], [78.7860273, 30.1494131], [78.7860916, 30.1496264], [78.7856603, 30.1501836], [78.7857354, 30.1505175], [78.7856711, 30.1518256], [78.7855316, 30.152039], [78.7856067, 30.1526699], [78.7858127, 30.1534116], [78.7856947, 30.1539867], [78.786038, 30.1546083], [78.7859286, 30.1549798], [78.7856174, 30.1553602], [78.7853707, 30.1566589], [78.7845875, 30.1574103], [78.7843643, 30.1577531], [78.7831627, 30.1590982], [78.7828944, 30.1591075], [78.7824867, 30.1593301], [78.7823365, 30.1595899], [78.7821627, 30.1597759], [78.7821306, 30.1602026], [78.7816714, 30.1607309], [78.7819052, 30.1611488], [78.7818645, 30.1615472], [78.7815963, 30.1616863], [78.7812207, 30.1616771], [78.7810276, 30.1616492], [78.7810469, 30.161761], [78.7815512, 30.1618723], [78.7819374, 30.161761], [78.7822915, 30.1615477], [78.7823365, 30.161204], [78.7822293, 30.1610092], [78.7824331, 30.1605917], [78.782637, 30.1600815], [78.7830554, 30.1596177], [78.7835382, 30.1597661], [78.7837313, 30.1595806], [78.7840317, 30.1594971], [78.7842892, 30.1591168], [78.7845681, 30.1591724], [78.7854565, 30.1589966], [78.7859071, 30.1583473], [78.7870336, 30.1576515], [78.7882696, 30.1575305], [78.7885249, 30.157466], [78.7891901, 30.1561673], [78.7897931, 30.1552669], [78.789439, 30.1546547], [78.7893317, 30.1534579], [78.7890721, 30.1533749], [78.7888382, 30.1533281], [78.7885915, 30.1529663], [78.7887846, 30.1527343], [78.7891279, 30.1521406], [78.7890528, 30.1517602], [78.7893618, 30.1515844], [78.789439, 30.1511201], [78.7894283, 30.150916], [78.7897373, 30.1509072], [78.790027, 30.1511577], [78.7903274, 30.1512041], [78.7905548, 30.1512964], [78.7903724, 30.151417], [78.7901257, 30.1513891], [78.789954, 30.151417], [78.7899433, 30.1515932], [78.7901343, 30.1517143], [78.7901772, 30.1521225], [78.7900592, 30.1531708], [78.7904475, 30.1534023], [78.7907587, 30.1540053], [78.7905441, 30.1542372], [78.7907136, 30.1544139], [78.7909947, 30.1542836], [78.7911235, 30.1545433], [78.7909818, 30.1560652], [78.7905441, 30.156408], [78.7904776, 30.1571228], [78.7899647, 30.1576047], [78.7898875, 30.1581246], [78.7896643, 30.1584767], [78.7896429, 30.1588478], [78.7893747, 30.1588849], [78.7889992, 30.1587457], [78.7886129, 30.1588385], [78.7883662, 30.1590518], [78.7877761, 30.159293], [78.7872396, 30.1599146], [78.7873555, 30.160351], [78.7869585, 30.1606015], [78.7865744, 30.1606288], [78.7862311, 30.16087], [78.7860788, 30.1611395], [78.7850402, 30.1617976], [78.7850724, 30.1620481], [78.7855745, 30.1627536], [78.7859092, 30.1635045], [78.7860037, 30.1640615], [78.7859414, 30.1645712], [78.7860358, 30.1653601], [78.7856088, 30.165406], [78.785287, 30.1656379], [78.7848578, 30.1656565], [78.7847291, 30.1658049], [78.7844823, 30.1658977], [78.7841368, 30.1658054], [78.7838171, 30.1656287], [78.7835704, 30.1657864], [78.7831841, 30.1659255]]}, "properties": {"highway": "tertiary", "name": null, "surface": null, "osm_way_id": 315196761, "source": "OpenStreetMap contributors"}}, {"type": "Feature", "geometry": {"type": "LineString", "coordinates": [[78.7778503, 30.1714189], [78.7780235, 30.1712406], [78.77798, 30.1706283], [78.7780582, 30.1705081], [78.7779626, 30.17017], [78.7778844, 30.1696441], [78.7778844, 30.1695977], [78.7778844, 30.1695314], [78.7776628, 30.1693736], [78.7775933, 30.1692196], [78.7775791, 30.1691737], [78.7774543, 30.1687688], [78.7773055, 30.1686687], [78.7772136, 30.1685253]]}, "properties": {"highway": "residential", "name": null, "surface": null, "osm_way_id": 1001892717, "source": "OpenStreetMap contributors"}}, {"type": "Feature", "geometry": {"type": "LineString", "coordinates": [[78.779033, 30.172478], [78.7788269, 30.1723926], [78.7787274, 30.1722536], [78.7785589, 30.1721566], [78.778462, 30.1721434], [78.7784314, 30.172086], [78.7783344, 30.1719845], [78.77824, 30.1719051], [78.7782068, 30.1718279], [78.7782017, 30.1717838], [78.7782349, 30.1717176], [78.7783089, 30.1716713], [78.7783752, 30.1716448], [78.7784441, 30.1715036], [78.7785283, 30.171261], [78.7784671, 30.1707999], [78.7783778, 30.1706433], [78.7782425, 30.1702661], [78.7781405, 30.1700609], [78.7780308, 30.1697808], [78.7778844, 30.1695977]]}, "properties": {"highway": "residential", "name": null, "surface": null, "osm_way_id": 1001892718, "source": "OpenStreetMap contributors"}}, {"type": "Feature", "geometry": {"type": "LineString", "coordinates": [[78.7775791, 30.1691737], [78.777648, 30.1691631], [78.777722, 30.1691322], [78.7777807, 30.1690396], [78.7778139, 30.1689557], [78.7777526, 30.1689248], [78.7776914, 30.1688234], [78.7777246, 30.1687153], [78.7777041, 30.1686425], [78.7776327, 30.1686116], [78.7775383, 30.16853], [78.7774617, 30.1685145], [78.7774517, 30.1682803], [78.7774383, 30.1682146], [78.7774416, 30.1681681], [78.7774495, 30.1680563], [78.7774272, 30.1680254], [78.7774741, 30.167979], [78.7774696, 30.1679404], [78.777387, 30.1678902], [78.777387, 30.1678033], [78.7774294, 30.1676951], [78.7774674, 30.1676121], [78.7774562, 30.167531], [78.7774093, 30.1674499], [78.7773356, 30.1671602], [78.7772932, 30.1670656], [78.7772217, 30.1670424]]}, "properties": {"highway": "residential", "name": null, "surface": null, "osm_way_id": 1001892719, "source": "OpenStreetMap contributors"}}, {"type": "Feature", "geometry": {"type": "LineString", "coordinates": [[78.7772127, 30.1677029], [78.7770631, 30.167867], [78.7770385, 30.1680389], [78.7771145, 30.1681084], [78.7774416, 30.1681681]]}, "properties": {"highway": "residential", "name": null, "surface": null, "osm_way_id": 1001892720, "source": "OpenStreetMap contributors"}}, {"type": "Feature", "geometry": {"type": "LineString", "coordinates": [[78.7774383, 30.1682146], [78.7773937, 30.1682552], [78.7773914, 30.1683749], [78.7773535, 30.1684522], [78.7773267, 30.1685294], [78.7773267, 30.1686009], [78.7773055, 30.1686687], [78.7771614, 30.1687611], [78.7770854, 30.1687785], [78.7769983, 30.1687631], [78.7768665, 30.1687998], [78.7768151, 30.168848], [78.7767705, 30.1689446], [78.7767749, 30.1690083], [78.7767571, 30.1690238], [78.7767079, 30.1690334], [78.7766521, 30.1690663], [78.7766499, 30.1691261], [78.7766298, 30.1691976], [78.7766856, 30.1693675], [78.7767102, 30.169381], [78.7767481, 30.1693772], [78.7767928, 30.1693482], [78.7768375, 30.1692845], [78.7768866, 30.1692574], [78.7769916, 30.1692594], [78.7771212, 30.1692903], [78.7772418, 30.1693656], [78.7773066, 30.1694428], [78.7773691, 30.1694756], [78.7777756, 30.1695471], [78.7778844, 30.1695977]]}, "properties": {"highway": "residential", "name": null, "surface": null, "osm_way_id": 1001892721, "source": "OpenStreetMap contributors"}}, {"type": "Feature", "geometry": {"type": "LineString", "coordinates": [[78.7735068, 30.1675306], [78.7737331, 30.1675815], [78.7738984, 30.1676955], [78.7739408, 30.1677611], [78.7741999, 30.1678615], [78.7742602, 30.1679427], [78.7742915, 30.1680199], [78.7743049, 30.1680894], [78.7743384, 30.1681551], [78.7745171, 30.1682845], [78.7745685, 30.1683559], [78.7745908, 30.1685259], [78.7746556, 30.168663], [78.7746533, 30.1687306], [78.7746913, 30.168773], [78.7748075, 30.1687846], [78.7748879, 30.1687827], [78.7750822, 30.1686997], [78.7752743, 30.1686997], [78.7757277, 30.1685741], [78.7759288, 30.168605], [78.7761454, 30.1686591], [78.7762504, 30.1687673], [78.7761521, 30.1689391], [78.7761611, 30.1691805], [78.7761879, 30.1691902], [78.7762504, 30.1691496], [78.7764425, 30.1690955], [78.7765185, 30.1690955], [78.7766033, 30.1691342], [78.7766298, 30.1691976]]}, "properties": {"highway": "residential", "name": null, "surface": null, "osm_way_id": 1001892722, "source": "OpenStreetMap contributors"}}, {"type": "Feature", "geometry": {"type": "LineString", "coordinates": [[78.7755007, 30.168998], [78.7754642, 30.16897], [78.7752989, 30.1689391], [78.775281, 30.1689275], [78.7752855, 30.1689082], [78.7753704, 30.1688561], [78.7753972, 30.1688155], [78.7754396, 30.1687885], [78.7755267, 30.1688001], [78.7757791, 30.1688387], [78.7758327, 30.168858], [78.7758997, 30.1688696], [78.7760069, 30.1688542], [78.7760382, 30.1688213], [78.776065, 30.168831], [78.7761521, 30.1689391]]}, "properties": {"highway": "residential", "name": null, "surface": null, "osm_way_id": 1001892723, "source": "OpenStreetMap contributors"}}, {"type": "Feature", "geometry": {"type": "LineString", "coordinates": [[78.7740272, 30.1620554], [78.7741399, 30.1619117], [78.7743035, 30.1618769], [78.7744296, 30.1618815], [78.7745315, 30.1619511], [78.7746549, 30.1620091], [78.7747917, 30.1620323], [78.7749472, 30.1620369], [78.7751082, 30.1619928], [78.7752235, 30.1619349], [78.7754783, 30.1617702], [78.7755963, 30.1616427], [78.7756982, 30.1615592], [78.7758109, 30.1615244], [78.7759316, 30.161529], [78.776055, 30.1615638], [78.7762159, 30.1615777], [78.7763876, 30.1615337], [78.7765324, 30.1614873], [78.7766853, 30.1614432], [78.7769428, 30.161369], [78.7770447, 30.1613319], [78.7771896, 30.1612739], [78.7772942, 30.1611997], [78.7773719, 30.1611325], [78.7773934, 30.1610977]]}, "properties": {"highway": "track", "name": null, "surface": null, "osm_way_id": 1165988739, "source": "OpenStreetMap contributors"}}, {"type": "Feature", "geometry": {"type": "LineString", "coordinates": [[78.7707199, 30.1644348], [78.7707925, 30.1644139], [78.7707737, 30.1643072], [78.7707737, 30.1642145], [78.77083, 30.1641217], [78.7708944, 30.1639872], [78.7709132, 30.1639107], [78.7709293, 30.1638318], [78.7709776, 30.163746], [78.770999, 30.1637715], [78.7710097, 30.1639153], [78.7710124, 30.1640081], [78.7710124, 30.1640892], [78.7710124, 30.164182], [78.7710124, 30.1642261], [78.7710232, 30.1642724], [78.7710634, 30.164284], [78.7711117, 30.1642655], [78.7711197, 30.1641519], [78.7711197, 30.164073], [78.7711358, 30.1639756], [78.7712082, 30.1638597], [78.7712806, 30.1637646], [78.7713557, 30.1636718], [78.7714255, 30.1635814], [78.7715918, 30.1633332], [78.7716937, 30.1632011], [78.771809, 30.1630828], [78.7718761, 30.1629784], [78.7719324, 30.1628671], [78.7719378, 30.1627906], [78.7718359, 30.1625564], [78.7718359, 30.1624543], [78.771911, 30.1622526], [78.7719861, 30.1622039], [78.7720665, 30.1622247], [78.7722516, 30.1622734], [78.7723374, 30.1622781], [78.7724259, 30.1622549], [78.7726995, 30.1621181], [78.7727907, 30.1620647], [78.772957, 30.1619998], [78.7730831, 30.1619604], [78.7731931, 30.1619604], [78.7732387, 30.1619673], [78.7732279, 30.1620276], [78.773075, 30.1620995], [78.772949, 30.1621644], [78.7729087, 30.1621784], [78.7728873, 30.162241], [78.7729731, 30.1622433], [78.7730911, 30.1622085], [78.7731716, 30.1621992], [78.7733325, 30.1622108], [78.7734023, 30.1622062], [78.7734988, 30.1621297], [78.7735686, 30.1620763], [78.7736759, 30.1620578], [78.77381, 30.1620531], [78.773928, 30.1620508], [78.7740272, 30.1620554], [78.7740111, 30.1621459], [78.7739226, 30.1622224], [78.7738019, 30.1622294], [78.7736866, 30.1622526], [78.773582, 30.1623268], [78.7735149, 30.1624056], [78.7735417, 30.1624706], [78.7736705, 30.1624381], [78.77381, 30.1624195], [78.7739199, 30.1624079], [78.774046, 30.1623407], [78.7742257, 30.1622271], [78.7743786, 30.162125], [78.7744752, 30.1620926], [78.7745744, 30.1621343], [78.7747058, 30.16219], [78.7748373, 30.1622665], [78.7749258, 30.1623314], [78.7750545, 30.1623569], [78.775194, 30.1623732], [78.7753576, 30.1624172], [78.7753603, 30.1624497], [78.7752584, 30.1625332], [78.7751725, 30.1625378], [78.7750277, 30.162459], [78.7748748, 30.1623917], [78.7747031, 30.1623245], [78.7745959, 30.1623221], [78.7744859, 30.1623407], [78.7744269, 30.162401], [78.774392, 30.1624613], [78.7742338, 30.162619], [78.7741721, 30.16267], [78.7741479, 30.162728], [78.7742686, 30.1627442], [78.7743866, 30.1627071], [78.7744671, 30.1626352], [78.7745529, 30.1625285], [78.7747219, 30.1625193], [78.7748373, 30.1625471], [78.7749526, 30.1626352], [78.7750277, 30.1626839], [78.7751323, 30.1627767], [78.7752315, 30.1628694], [78.7752879, 30.1629205], [78.775371, 30.1629205], [78.7755829, 30.1628346], [78.7757117, 30.1627929], [78.7759745, 30.1627372], [78.7761891, 30.162663], [78.7763634, 30.1626213], [78.7765485, 30.1626491], [78.7766853, 30.1626607], [78.776857, 30.1626538], [78.7770045, 30.1626143]]}, "properties": {"highway": "track", "name": null, "surface": null, "osm_way_id": 1165988740, "source": "OpenStreetMap contributors"}}, {"type": "Feature", "geometry": {"type": "LineString", "coordinates": [[78.7679596, 30.1583332], [78.7680549, 30.1583583], [78.7683553, 30.1582099], [78.7686144, 30.1582266], [78.7690527, 30.158312], [78.7695049, 30.158273], [78.7694084, 30.1584678], [78.7695033, 30.1587665], [78.7697517, 30.1587832], [78.7699877, 30.1587183], [78.770213, 30.1585327], [78.7704904, 30.1582285], [78.7707908, 30.1580151], [78.7708337, 30.1576719], [78.770964, 30.1574845], [78.7710697, 30.1576255], [78.7711679, 30.1578556], [78.7714361, 30.158106], [78.7717794, 30.1581339], [78.7722622, 30.15767], [78.7725197, 30.1573732], [78.7728952, 30.1572155], [78.7735819, 30.1568537], [78.7739359, 30.1565846], [78.7740416, 30.1563731], [78.7740861, 30.1561672], [78.7740094, 30.1559464], [78.7737428, 30.1557683], [78.7735604, 30.1556755], [78.7736446, 30.1553712], [78.7735373, 30.1551579], [78.7732493, 30.1549241], [78.7731313, 30.1546922], [78.7729703, 30.1546736]]}, "properties": {"highway": "unclassified", "name": null, "surface": null, "osm_way_id": 1331479339, "source": "OpenStreetMap contributors"}}]}