{"type": "FeatureCollection", "features": [{"type": "Feature", "geometry": {"type": "Point", "coordinates": [78.7736936, 30.1508374]}, "properties": {"amenity": "hospital", "name": "DH Pauri", "osm_id": 7127949348, "osm_type": "node", "distance_m": 1950.6, "source": "OpenStreetMap contributors"}}, {"type": "Feature", "geometry": {"type": "Point", "coordinates": [78.7769901, 30.1469778]}, "properties": {"amenity": "clinic", "name": "Dr. Nautiyal's Clinic", "osm_id": 7486360392, "osm_type": "node", "distance_m": 2276.3, "source": "OpenStreetMap contributors"}}, {"type": "Feature", "geometry": {"type": "Point", "coordinates": [78.7762836, 30.1470093]}, "properties": {"amenity": "clinic", "name": "Dr. Bahuguna Clinic", "osm_id": 7486360411, "osm_type": "node", "distance_m": 2286.1, "source": "OpenStreetMap contributors"}}, {"type": "Feature", "geometry": {"type": "Point", "coordinates": [78.7565017, 30.1583379]}, "properties": {"amenity": "place_of_worship", "name": "Kyunkaleshwar", "osm_id": 9857426542, "osm_type": "node", "distance_m": 2573.0, "source": "OpenStreetMap contributors"}}]}